[
  {
    "OBJECT_NAME": "HELIOS 2A",
    "OBJECT_ID": "2004-049A",
    "EPOCH": "2025-03-26T05:19:34.116960",
    "MEAN_MOTION": 15.00555103,
    "ECCENTRICITY": 0.000583,
    "INCLINATION": 98.3164,
    "RA_OF_ASC_NODE": 103.8411,
    "ARG_OF_PERICENTER": 20.5667,
    "MEAN_ANOMALY": 339.5789,
    "EPHEMERIS_TYPE": 0,
    "CLASSIFICATION_TYPE": "U",
    "NORAD_CAT_ID": 28492,
    "ELEMENT_SET_NO": 999,
    "REV_AT_EPOCH": 8655,
    "BSTAR": 0.00048021,
    "MEAN_MOTION_DOT": 0.00005995,
    "MEAN_MOTION_DDOT": 0
  },
  {
    "OBJECT_NAME": "ISS SAMPLE",
    "OBJECT_ID": "1998-067A",
    "EPOCH": "2025-03-26T06:00:00.000000",
    "MEAN_MOTION": 15.50015342,
    "ECCENTRICITY": 0.0006821,
    "INCLINATION": 51.6396,
    "RA_OF_ASC_NODE": 12.6042,
    "ARG_OF_PERICENTER": 74.2134,
    "MEAN_ANOMALY": 31.9288,
    "EPHEMERIS_TYPE": 0,
    "CLASSIFICATION_TYPE": "U",
    "NORAD_CAT_ID": 25544,
    "ELEMENT_SET_NO": 999,
    "REV_AT_EPOCH": 46321,
    "BSTAR": 0.00020123,
    "MEAN_MOTION_DOT": 0.00010245,
    "MEAN_MOTION_DDOT": 0
  },
  {
    "OBJECT_NAME": "NOAA 19 SAMPLE",
    "OBJECT_ID": "2009-005A",
    "EPOCH": "2025-03-26T07:10:00.000000",
    "MEAN_MOTION": 14.12413278,
    "ECCENTRICITY": 0.0013824,
    "INCLINATION": 99.1944,
    "RA_OF_ASC_NODE": 143.8067,
    "ARG_OF_PERICENTER": 221.4458,
    "MEAN_ANOMALY": 138.5621,
    "EPHEMERIS_TYPE": 0,
    "CLASSIFICATION_TYPE": "U",
    "NORAD_CAT_ID": 33591,
    "ELEMENT_SET_NO": 999,
    "REV_AT_EPOCH": 83104,
    "BSTAR": 0.00006218,
    "MEAN_MOTION_DOT": 0.00000142,
    "MEAN_MOTION_DDOT": 0
  },
  {
    "OBJECT_NAME": "LANDSAT 8 SAMPLE",
    "OBJECT_ID": "2013-008A",
    "EPOCH": "2025-03-26T08:20:00.000000",
    "MEAN_MOTION": 14.57111295,
    "ECCENTRICITY": 0.0001189,
    "INCLINATION": 98.2211,
    "RA_OF_ASC_NODE": 158.3359,
    "ARG_OF_PERICENTER": 89.7421,
    "MEAN_ANOMALY": 270.3916,
    "EPHEMERIS_TYPE": 0,
    "CLASSIFICATION_TYPE": "U",
    "NORAD_CAT_ID": 39084,
    "ELEMENT_SET_NO": 999,
    "REV_AT_EPOCH": 64521,
    "BSTAR": 0.00008972,
    "MEAN_MOTION_DOT": 0.00000386,
    "MEAN_MOTION_DDOT": 0
  },
  {
    "OBJECT_NAME": "TERRA SAMPLE",
    "OBJECT_ID": "1999-068A",
    "EPOCH": "2025-03-26T09:30:00.000000",
    "MEAN_MOTION": 14.57198631,
    "ECCENTRICITY": 0.0001427,
    "INCLINATION": 98.1065,
    "RA_OF_ASC_NODE": 170.2073,
    "ARG_OF_PERICENTER": 116.8254,
    "MEAN_ANOMALY": 243.3098,
    "EPHEMERIS_TYPE": 0,
    "CLASSIFICATION_TYPE": "U",
    "NORAD_CAT_ID": 25994,
    "ELEMENT_SET_NO": 999,
    "REV_AT_EPOCH": 36012,
    "BSTAR": 0.00007341,
    "MEAN_MOTION_DOT": 0.00000291,
    "MEAN_MOTION_DDOT": 0
  },
  {
    "OBJECT_NAME": "AQUA SAMPLE",
    "OBJECT_ID": "2002-022A",
    "EPOCH": "2025-03-26T10:40:00.000000",
    "MEAN_MOTION": 14.57123188,
    "ECCENTRICITY": 0.0001034,
    "INCLINATION": 98.2037,
    "RA_OF_ASC_NODE": 187.9112,
    "ARG_OF_PERICENTER": 72.4619,
    "MEAN_ANOMALY": 287.6714,
    "EPHEMERIS_TYPE": 0,
    "CLASSIFICATION_TYPE": "U",
    "NORAD_CAT_ID": 27424,
    "ELEMENT_SET_NO": 999,
    "REV_AT_EPOCH": 22147,
    "BSTAR": 0.00008196,
    "MEAN_MOTION_DOT": 0.00000327,
    "MEAN_MOTION_DDOT": 0
  },
  {
    "OBJECT_NAME": "SENTINEL 2A SAMPLE",
    "OBJECT_ID": "2015-028A",
    "EPOCH": "2025-03-26T11:50:00.000000",
    "MEAN_MOTION": 14.30812867,
    "ECCENTRICITY": 0.0001228,
    "INCLINATION": 98.5653,
    "RA_OF_ASC_NODE": 204.1186,
    "ARG_OF_PERICENTER": 102.3827,
    "MEAN_ANOMALY": 257.7483,
    "EPHEMERIS_TYPE": 0,
    "CLASSIFICATION_TYPE": "U",
    "NORAD_CAT_ID": 40697,
    "ELEMENT_SET_NO": 999,
    "REV_AT_EPOCH": 56132,
    "BSTAR": 0.00004538,
    "MEAN_MOTION_DOT": 0.00000176,
    "MEAN_MOTION_DDOT": 0
  },
  {
    "OBJECT_NAME": "SENTINEL 2B SAMPLE",
    "OBJECT_ID": "2017-013A",
    "EPOCH": "2025-03-26T13:00:00.000000",
    "MEAN_MOTION": 14.30823491,
    "ECCENTRICITY": 0.0001195,
    "INCLINATION": 98.5658,
    "RA_OF_ASC_NODE": 221.4497,
    "ARG_OF_PERICENTER": 84.9156,
    "MEAN_ANOMALY": 275.2219,
    "EPHEMERIS_TYPE": 0,
    "CLASSIFICATION_TYPE": "U",
    "NORAD_CAT_ID": 42063,
    "ELEMENT_SET_NO": 999,
    "REV_AT_EPOCH": 47488,
    "BSTAR": 0.00004762,
    "MEAN_MOTION_DOT": 0.00000184,
    "MEAN_MOTION_DDOT": 0
  },
  {
    "OBJECT_NAME": "WORLDVIEW 3 SAMPLE",
    "OBJECT_ID": "2014-048A",
    "EPOCH": "2025-03-26T14:10:00.000000",
    "MEAN_MOTION": 15.22497642,
    "ECCENTRICITY": 0.0003317,
    "INCLINATION": 97.8392,
    "RA_OF_ASC_NODE": 238.0104,
    "ARG_OF_PERICENTER": 154.2023,
    "MEAN_ANOMALY": 205.9361,
    "EPHEMERIS_TYPE": 0,
    "CLASSIFICATION_TYPE": "U",
    "NORAD_CAT_ID": 40115,
    "ELEMENT_SET_NO": 999,
    "REV_AT_EPOCH": 63007,
    "BSTAR": 0.00013421,
    "MEAN_MOTION_DOT": 0.00001263,
    "MEAN_MOTION_DDOT": 0
  },
  {
    "OBJECT_NAME": "RADARSAT 2 SAMPLE",
    "OBJECT_ID": "2007-061A",
    "EPOCH": "2025-03-26T15:20:00.000000",
    "MEAN_MOTION": 14.29917652,
    "ECCENTRICITY": 0.0001296,
    "INCLINATION": 98.5809,
    "RA_OF_ASC_NODE": 254.8862,
    "ARG_OF_PERICENTER": 96.5194,
    "MEAN_ANOMALY": 263.6178,
    "EPHEMERIS_TYPE": 0,
    "CLASSIFICATION_TYPE": "U",
    "NORAD_CAT_ID": 32382,
    "ELEMENT_SET_NO": 999,
    "REV_AT_EPOCH": 94418,
    "BSTAR": 0.00003914,
    "MEAN_MOTION_DOT": 0.00000135,
    "MEAN_MOTION_DDOT": 0
  },
  {
    "OBJECT_NAME": "METOP B SAMPLE",
    "OBJECT_ID": "2012-049A",
    "EPOCH": "2025-03-26T16:30:00.000000",
    "MEAN_MOTION": 14.21578243,
    "ECCENTRICITY": 0.0001884,
    "INCLINATION": 98.6907,
    "RA_OF_ASC_NODE": 272.7329,
    "ARG_OF_PERICENTER": 142.9385,
    "MEAN_ANOMALY": 217.1962,
    "EPHEMERIS_TYPE": 0,
    "CLASSIFICATION_TYPE": "U",
    "NORAD_CAT_ID": 38771,
    "ELEMENT_SET_NO": 999,
    "REV_AT_EPOCH": 70552,
    "BSTAR": 0.00002987,
    "MEAN_MOTION_DOT": 0.00000088,
    "MEAN_MOTION_DDOT": 0
  }
]
